NORAD_CAT_ID,OBJECT_NAME,OBJECT_TYPE,EPOCH,MEAN_MOTION,ECCENTRICITY,INCLINATION,RA_OF_ASC_NODE,ARG_OF_PERICENTER,MEAN_ANOMALY,BSTAR,MEAN_MOTION_DOT,MEAN_MOTION_DDOT,TLE_LINE0,TLE_LINE1,TLE_LINE2,SEMIMAJOR_AXIS,PERIOD,APOGEE,PERIGEE,DECAYED
52537.0,STARLINK-3897,PAYLOAD,2023-04-23 04:59:17,15.08828615,0.0001621,53.2148,169.4048,71.9325,288.1843,3.0822e-05,2.02e-06,0.0,0 STARLINK-3897,1 52537U 22051E   23113.20783888  .00000202  00000-0  30822-4 0  9999,2 52537  53.2148 169.4048 0001621  71.9325 288.1843 15.08828615 52708,6917.915,95.438,540.902,538.659,0.0
52537.0,STARLINK-3897,PAYLOAD,2023-04-23 16:06:59,15.0883417,0.0001964,53.2146,167.323,70.2404,289.88,2.7632e-05,1.52e-06,0.0,0 STARLINK-3897,1 52537U 22051E   23113.67151939  .00000152  00000-0  27632-4 0  9995,2 52537  53.2146 167.3230 0001964  70.2404 289.8800 15.08834170 52777,6917.898,95.438,541.122,538.405,0.0
52537.0,STARLINK-3897,PAYLOAD,2023-04-24 03:14:40,15.08850439,0.0001134,53.2143,165.2411,100.9529,259.1591,0.00022531,3.301e-05,0.0,0 STARLINK-3897,1 52537U 22051E   23114.13518837  .00003301  00000-0  22531-3 0  9992,2 52537  53.2143 165.2411 0001134 100.9529 259.1591 15.08850439 52919,6917.848,95.437,540.498,538.929,0.0
52537.0,STARLINK-3897,PAYLOAD,2023-04-24 20:43:53,15.08864782,0.0001286,53.2144,161.9685,106.5874,253.5259,0.00029855,4.47e-05,0.0,0 STARLINK-3897,1 52537U 22051E   23114.86381608  .00004470  00000-0  29855-3 0  9990,2 52537  53.2144 161.9685 0001286 106.5874 253.5259 15.08864782 53027,6917.805,95.436,540.559,538.78,0.0
52537.0,STARLINK-3897,PAYLOAD,2023-04-25 09:27:00,15.08817305,0.000143,53.2139,159.5893,114.8557,245.2584,-0.00058465,-9.575e-05,0.0,0 STARLINK-3897,1 52537U 22051E   23115.39375117 -.00009575  00000-0 -58465-3 0  9999,2 52537  53.2139 159.5893 0001430 114.8557 245.2584 15.08817305 53103,6917.95,95.439,540.804,538.825,0.0
52537.0,STARLINK-3897,PAYLOAD,2023-04-25 12:37:46,15.08813891,0.000144,53.2139,158.9948,117.39,242.7238,-0.00049339,-8.126e-05,0.0,0 STARLINK-3897,1 52537U 22051E   23115.52623430 -.00008126  00000-0 -49339-3 0  9999,2 52537  53.2139 158.9948 0001440 117.3900 242.7238 15.08813891 53056,6917.96,95.439,540.821,538.829,0.0
52537.0,STARLINK-3897,PAYLOAD,2023-04-26 09:17:48,15.08822714,0.0001475,53.2149,155.1295,117.2302,242.884,0.00057853,8.927e-05,0.0,0 STARLINK-3897,1 52537U 22051E   23116.38736980  .00008927  00000-0  57853-3 0  9996,2 52537  53.2149 155.1295 0001475 117.2302 242.8840 15.08822714 53182,6917.933,95.439,540.819,538.778,0.0
52537.0,STARLINK-3897,PAYLOAD,2023-04-26 14:03:58,15.08828902,0.0001471,53.2147,154.2373,118.3443,241.7698,0.00058192,8.983e-05,0.0,0 STARLINK-3897,1 52537U 22051E   23116.58609083  .00008983  00000-0  58192-3 0  9990,2 52537  53.2147 154.2373 0001471 118.3443 241.7698 15.08828902 53219,6917.914,95.438,540.797,538.762,0.0
52537.0,STARLINK-3897,PAYLOAD,2023-04-27 09:08:35,15.08852688,0.0001385,53.215,150.6693,115.9822,244.1313,0.00079719,0.00012426,0.0,0 STARLINK-3897,1 52537U 22051E   23117.38096856  .00012426  00000-0  79719-3 0  9992,2 52537  53.2150 150.6693 0001385 115.9822 244.1313 15.08852688 53338,6917.842,95.437,540.665,538.748,0.0
52537.0,STARLINK-3897,PAYLOAD,2023-04-27 13:54:44,15.08856589,0.0001355,53.2149,149.7774,114.1369,245.9765,0.00075486,0.00011751,0.0,0 STARLINK-3897,1 52537U 22051E   23117.57968677  .00011751  00000-0  75486-3 0  9999,2 52537  53.2149 149.7774 0001355 114.1369 245.9765 15.08856589 53434,6917.83,95.437,540.632,538.757,0.0
52537.0,STARLINK-3897,PAYLOAD,2023-04-28 12:10:07,15.0886447,0.0001312,53.215,145.6151,109.719,250.3944,0.00044487,6.804e-05,0.0,0 STARLINK-3897,1 52537U 22051E   23118.50703539  .00006804  00000-0  44487-3 0  9997,2 52537  53.2150 145.6151 0001312 109.7190 250.3944 15.08864470 53577,6917.806,95.436,540.578,538.763,0.0
52537.0,STARLINK-3897,PAYLOAD,2023-04-28 18:31:40,15.08854137,0.0001511,53.2154,144.4238,99.5973,260.519,0.00011394,1.527e-05,0.0,0 STARLINK-3897,1 52537U 22051E   23118.77199621  .00001527  00000-0  11394-3 0  9995,2 52537  53.2154 144.4238 0001511  99.5973 260.5190 15.08854137 53610,6917.837,95.437,540.747,538.657,0.0
52537.0,STARLINK-3897,PAYLOAD,2023-04-29 10:25:31,15.08843295,0.0001305,53.215,141.4519,109.607,250.5063,-8.7419e-05,-1.679e-05,0.0,0 STARLINK-3897,1 52537U 22051E   23119.43439684 -.00001679  00000-0 -87419-4 0  9997,2 52537  53.2150 141.4519 0001305 109.6070 250.5063 15.08843295 53641,6917.87,95.437,540.638,538.833,0.0
52537.0,STARLINK-3897,PAYLOAD,2023-04-29 13:36:18,15.08845373,0.0001281,53.215,140.8564,107.3605,252.7528,-2.3438e-05,-6.61e-06,0.0,0 STARLINK-3897,1 52537U 22051E   23119.56687588 -.00000661  00000-0 -23438-4 0  9990,2 52537  53.2150 140.8564 0001281 107.3605 252.7528 15.08845373 53735,6917.864,95.437,540.615,538.843,0.0
52537.0,STARLINK-3897,PAYLOAD,2023-04-30 08:40:55,15.08843286,0.0001333,53.2148,137.2883,112.6015,247.5118,4.895e-05,4.91e-06,0.0,0 STARLINK-3897,1 52537U 22051E   23120.36175591  .00000491  00000-0  48950-4 0  9991,2 52537  53.2148 137.2883 0001333 112.6015 247.5118 15.08843286 53781,6917.87,95.437,540.657,538.813,0.0
52537.0,STARLINK-3897,PAYLOAD,2023-05-01 05:20:56,15.088375,0.0001569,53.2144,133.4202,122.3542,237.7602,0.00011332,1.516e-05,0.0,0 STARLINK-3897,1 52537U 22051E   23121.22287985  .00001516  00000-0  11332-3 0  9990,2 52537  53.2144 133.4202 0001569 122.3542 237.7602 15.08837500 53987,6917.888,95.438,540.838,538.668,0.0
52537.0,STARLINK-3897,PAYLOAD,2023-05-01 10:07:06,15.08836002,0.0001284,53.2149,132.5301,99.2845,260.8293,7.5003e-05,9.06e-06,0.0,0 STARLINK-3897,1 52537U 22051E   23121.42160418  .00000906  00000-0  75003-4 0  9991,2 52537  53.2149 132.5301 0001284  99.2845 260.8293 15.08836002 53949,6917.893,95.438,540.646,538.869,0.0
52537.0,STARLINK-3897,PAYLOAD,2023-05-02 06:47:07,15.08844641,0.0001266,53.215,128.6642,101.0336,259.0798,0.00018004,2.579e-05,0.0,0 STARLINK-3897,1 52537U 22051E   23122.28272122  .00002579  00000-0  18004-3 0  9997,2 52537  53.2150 128.6642 0001266 101.0336 259.0798 15.08844641 54143,6917.866,95.437,540.607,538.855,0.0
52537.0,STARLINK-3897,PAYLOAD,2023-05-02 11:33:16,15.08845549,0.0001279,53.2148,127.7724,82.7697,277.344,0.00021193,3.087e-05,0.0,0 STARLINK-3897,1 52537U 22051E   23122.48144175  .00003087  00000-0  21193-3 0  9993,2 52537  53.2148 127.7724 0001279  82.7697 277.3440 15.08845549 54101,6917.863,95.437,540.613,538.844,0.0
52537.0,STARLINK-3897,PAYLOAD,2023-05-03 05:02:31,15.08837869,0.00013,53.2149,124.5014,87.2777,272.8364,0.00010892,1.446e-05,0.0,0 STARLINK-3897,1 52537U 22051E   23123.21008640  .00001446  00000-0  10892-3 0  9992,2 52537  53.2149 124.5014 0001300  87.2777 272.8364 15.08837869 54283,6917.887,95.438,540.651,538.853,0.0
52537.0,STARLINK-3897,PAYLOAD,2023-05-03 09:48:40,15.08839665,0.0001304,53.2148,123.6091,85.8973,274.2169,0.00011901,1.607e-05,0.0,0 STARLINK-3897,1 52537U 22051E   23123.40880570  .00001607  00000-0  11901-3 0  9994,2 52537  53.2148 123.6091 0001304  85.8973 274.2169 15.08839665 54244,6917.881,95.438,540.649,538.844,0.0
52537.0,STARLINK-3897,PAYLOAD,2023-05-04 03:17:54,15.08847439,0.0001306,53.2159,120.3378,88.5716,271.5425,9.2293e-05,1.182e-05,0.0,0 STARLINK-3897,1 52537U 22051E   23124.13743920  .00001182  00000-0  92293-4 0  9994,2 52537  53.2159 120.3378 0001306  88.5716 271.5425 15.08847439 54428,6917.858,95.437,540.626,538.819,0.0
52537.0,STARLINK-3897,PAYLOAD,2023-05-04 09:39:27,15.08849342,0.0001286,53.2158,119.1486,86.5406,273.5733,9.9071e-05,1.29e-05,0.0,0 STARLINK-3897,1 52537U 22051E   23124.40239639  .00001290  00000-0  99071-4 0  9992,2 52537  53.2158 119.1486 0001286  86.5406 273.5733 15.08849342 54399,6917.852,95.437,540.606,538.827,0.0
52537.0,STARLINK-3897,PAYLOAD,2023-05-04 23:57:55,15.08838329,0.0001258,53.2154,116.4722,85.8153,274.2982,7.3113e-05,8.76e-06,0.0,0 STARLINK-3897,1 52537U 22051E   23124.99856394  .00000876  00000-0  73113-4 0  9997,2 52537  53.2154 116.4722 0001258  85.8153 274.2982 15.08838329 54553,6917.885,95.438,540.621,538.88,0.0
52537.0,STARLINK-3897,PAYLOAD,2023-05-05 15:51:47,15.08838522,0.000124,53.2154,113.4985,84.7659,275.3474,3.2046e-05,2.22e-06,0.0,0 STARLINK-3897,1 52537U 22051E   23125.66096404  .00000222  00000-0  32046-4 0  9995,2 52537  53.2154 113.4985 0001240  84.7659 275.3474 15.08838522 54587,6917.885,95.438,540.608,538.892,0.0
52537.0,STARLINK-3897,PAYLOAD,2023-05-06 06:10:15,15.08843113,0.0001167,53.2157,110.8224,88.0252,272.0874,3.1094e-05,2.07e-06,0.0,0 STARLINK-3897,1 52537U 22051E   23126.25712219  .00000207  00000-0  31094-4 0  9995,2 52537  53.2157 110.8224 0001167  88.0252 272.0874 15.08843113 54749,6917.871,95.437,540.543,538.929,0.0
52537.0,STARLINK-3897,PAYLOAD,2023-05-07 06:01:02,15.08843463,0.0001218,53.2159,106.362,90.8463,269.2669,7.9878e-05,9.84e-06,0.0,0 STARLINK-3897,1 52537U 22051E   23127.25072115  .00000984  00000-0  79878-4 0  9994,2 52537  53.2159 106.3620 0001218  90.8463 269.2669 15.08843463 54820,6917.87,95.437,540.577,538.892,0.0
52537.0,STARLINK-3897,PAYLOAD,2023-05-07 15:33:21,15.08837044,0.0001203,53.2163,104.578,86.1342,273.9788,2.8155e-05,1.6e-06,0.0,0 STARLINK-3897,1 52537U 22051E   23127.64816726  .00000160  00000-0  28155-4 0  9999,2 52537  53.2163 104.5780 0001203  86.1342 273.9788 15.08837044 54956,6917.889,95.438,540.587,538.922,0.0
52537.0,STARLINK-3897,PAYLOAD,2023-05-08 04:16:27,15.08820137,0.0001278,53.2164,102.199,84.1323,275.9815,9.9908e-05,1.302e-05,0.0,0 STARLINK-3897,1 52537U 22051E   23128.17809918  .00001302  00000-0  99908-4 0  9996,2 52537  53.2164 102.1990 0001278  84.1323 275.9815 15.08820137 55031,6917.941,95.439,540.69,538.922,0.0
52537.0,STARLINK-3897,PAYLOAD,2023-05-08 10:38:00,15.0882578,0.0001319,53.2164,101.0094,84.2262,275.8881,0.00015764,2.221e-05,0.0,0 STARLINK-3897,1 52537U 22051E   23128.44305593  .00002221  00000-0  15764-3 0  9994,2 52537  53.2164 101.0094 0001319  84.2262 275.8881 15.08825780 55078,6917.924,95.438,540.701,538.876,0.0
